STARLINK-4253           
1 53004U 22076U   26068.47962608 -.00000320  00000+0 -19980-5 0  9991
2 53004  53.2168  95.0645 0001141  99.2323 260.8799 15.08837514202819
KUIPER-00148            
1 65769U 25217H   26068.27522507  .00015783  00000+0  98730-3 0  9995
2 65769  51.8794  26.5769 0008108 351.8096   8.2745 15.09536529 25078
